0 FENGYUN 1C DEB
1 38135U 99025EQG 13272.74702424  .00000627  00000-0  25646-3 0   576
2 38135 098.8984 246.4912 0245608 249.5389 107.9222 14.16006458210967
0 FENGYUN 1C DEB
1 38135U 99025EQG 13275.14951171  .00000602  00000-0  24679-3 0   587
2 38135 098.8995 248.8952 0245276 242.2805 115.3274 14.16008913211300
0 FENGYUN 1C DEB
1 38135U 99025EQG 13275.14952267  .00000617  00000-0  23380-3 0   588
2 38135 098.8975 248.8964 0244477 242.2386 115.4283 14.16009151211303
0 FENGYUN 1C DEB
1 38135U 99025EQG 13276.77473318  .00000719  00000-0  27156-3 0   592
2 38135 098.8976 250.5185 0245690 237.6654 120.0995 14.16010941211539
0 FENGYUN 1C DEB
1 38135U 99025EQG 13277.69332380  .00000600  00000-0  24591-3 0   608
2 38135 098.8971 251.4329 0245400 235.0596 122.7317 14.16012233211667
0 FENGYUN 1C DEB
1 38135U 99025EQG 13281.72102873  .00000589  00000-0  24172-3 0   611
2 38135 098.8970 255.4598 0245129 223.7204 134.4263 14.16017133212234
0 FENGYUN 1C DEB
1 38135U 99025EQG 13286.73799724  .00000570  00000-0  23380-3 0   636
2 38135 098.8988 260.4791 0245880 209.1962 149.5283 14.16023039212946
